NORAD_CAT_ID,OBJECT_NAME,OBJECT_TYPE,EPOCH,MEAN_MOTION,ECCENTRICITY,INCLINATION,RA_OF_ASC_NODE,ARG_OF_PERICENTER,MEAN_ANOMALY,BSTAR,MEAN_MOTION_DOT,MEAN_MOTION_DDOT,TLE_LINE0,TLE_LINE1,TLE_LINE2,SEMIMAJOR_AXIS,PERIOD,APOGEE,PERIGEE,DECAYED
54080.0,STARLINK-5160,PAYLOAD,2023-10-19 17:13:13,15.08849748,0.0001893,53.2167,293.719,79.571,280.5495,0.00026189,3.883e-05,0.0,0 STARLINK-5160,1 54080U 22136AF  23292.71752122  .00003883  00000-0  26189-3 0  9997,2 54080  53.2167 293.7190 0001893  79.5710 280.5495 15.08849748 55270,6917.851,95.437,541.025,538.406,0.0
54080.0,STARLINK-5160,PAYLOAD,2023-10-20 04:20:56,15.08834098,0.0001819,53.2163,291.6406,88.6615,271.4585,-2.754e-05,-7.26e-06,0.0,0 STARLINK-5160,1 54080U 22136AF  23293.18120774 -.00000726  00000-0 -27540-4 0  9999,2 54080  53.2163 291.6406 0001819  88.6615 271.4585 15.08834098 55828,6917.898,95.438,541.022,538.505,0.0
54080.0,STARLINK-5160,PAYLOAD,2023-10-20 09:07:05,15.08837959,0.0001881,53.2166,290.7482,85.0922,275.0285,2.1585e-05,5.5e-07,0.0,0 STARLINK-5160,1 54080U 22136AF  23293.37992818  .00000055  00000-0  21585-4 0  9992,2 54080  53.2166 290.7482 0001881  85.0922 275.0285 15.08837959 55372,6917.887,95.438,541.053,538.45,0.0
54080.0,STARLINK-5160,PAYLOAD,2023-10-21 07:22:29,15.08840146,0.000185,53.2167,286.5836,104.0767,256.0431,2.5803e-05,1.23e-06,0.0,0 STARLINK-5160,1 54080U 22136AF  23294.30729046  .00000123  00000-0  25803-4 0  9990,2 54080  53.2167 286.5836 0001850 104.0767 256.0431 15.08840146 55996,6917.88,95.438,541.025,538.465,0.0
54080.0,STARLINK-5160,PAYLOAD,2023-10-21 16:54:48,15.08844264,0.0001861,53.2168,284.7994,92.3748,267.7457,0.00016916,2.405e-05,0.0,0 STARLINK-5160,1 54080U 22136AF  23294.70472977  .00002405  00000-0  16916-3 0  9991,2 54080  53.2168 284.7994 0001861  92.3748 267.7457 15.08844264 55578,6917.867,95.437,541.02,538.445,0.0
54080.0,STARLINK-5160,PAYLOAD,2023-10-22 05:37:53,15.08855022,0.0001845,53.2171,282.4191,95.8279,264.2923,0.0004556,6.973e-05,0.0,0 STARLINK-5160,1 54080U 22136AF  23295.23464368  .00006973  00000-0  45560-3 0  9996,2 54080  53.2171 282.4191 0001845  95.8279 264.2923 15.08855022 56132,6917.834,95.437,540.976,538.423,0.0
54080.0,STARLINK-5160,PAYLOAD,2023-10-22 08:48:39,15.08860947,0.0001817,53.2169,281.8238,102.0993,258.0203,0.00051362,7.9e-05,0.0,0 STARLINK-5160,1 54080U 22136AF  23295.36712128  .00007900  00000-0  51362-3 0  9998,2 54080  53.2169 281.8238 0001817 102.0993 258.0203 15.08860947 55679,6917.816,95.436,540.938,538.424,0.0
54080.0,STARLINK-5160,PAYLOAD,2023-10-22 16:45:35,15.08837856,0.0002129,53.2172,280.3379,92.353,267.7706,6.3018e-05,7.15e-06,0.0,0 STARLINK-5160,1 54080U 22136AF  23295.69833172  .00000715  00000-0  63018-4 0  9996,2 54080  53.2172 280.3379 0002129  92.3530 267.7706 15.08837856 56206,6917.887,95.438,541.225,538.279,0.0
54080.0,STARLINK-5160,PAYLOAD,2023-10-23 05:28:40,15.08835903,0.0001855,53.2174,277.9602,93.8382,266.2822,-7.2743e-05,-1.446e-05,0.0,0 STARLINK-5160,1 54080U 22136AF  23296.22825189 -.00001446  00000-0 -72743-4 0  9994,2 54080  53.2174 277.9602 0001855  93.8382 266.2822 15.08835903 55804,6917.893,95.438,541.041,538.475,0.0
54080.0,STARLINK-5160,PAYLOAD,2023-10-24 05:19:27,15.08847908,0.0001894,53.2174,273.5017,87.3372,272.7837,0.00038078,5.779e-05,0.0,0 STARLINK-5160,1 54080U 22136AF  23297.22185181  .00005779  00000-0  38078-3 0  9999,2 54080  53.2174 273.5017 0001894  87.3372 272.7837 15.08847908 56432,6917.856,95.437,541.031,538.411,0.0
54080.0,STARLINK-5160,PAYLOAD,2023-10-24 08:30:14,15.08851254,0.0001953,53.2174,272.906,87.5403,272.5813,0.00045902,7.027e-05,0.0,0 STARLINK-5160,1 54080U 22136AF  23297.35433074  .00007027  00000-0  45902-3 0  9992,2 54080  53.2174 272.9060 0001953  87.5403 272.5813 15.08851254 55975,6917.846,95.437,541.062,538.36,0.0
54080.0,STARLINK-5160,PAYLOAD,2023-10-25 21:04:06,15.08844193,0.0001858,53.2162,266.0679,93.6908,266.4297,7.5021e-06,-1.69e-06,0.0,0 STARLINK-5160,1 54080U 22136AF  23298.87785082 -.00000169  00000-0  75021-5 0  9997,2 54080  53.2162 266.0679 0001858  93.6908 266.4297 15.08844193 56685,6917.868,95.437,541.018,538.447,0.0
54080.0,STARLINK-5160,PAYLOAD,2023-10-26 08:11:48,15.08844514,0.0001788,53.2162,263.9833,86.7336,273.3861,5.8372e-05,6.41e-06,0.0,0 STARLINK-5160,1 54080U 22136AF  23299.34153087  .00000641  00000-0  58372-4 0  9997,2 54080  53.2162 263.9833 0001788  86.7336 273.3861 15.08844514 56279,6917.867,95.437,540.969,538.495,0.0
54080.0,STARLINK-5160,PAYLOAD,2023-10-27 04:51:48,15.08853445,0.0001799,53.216,260.1178,87.1793,272.9405,0.00019263,2.78e-05,0.0,0 STARLINK-5160,1 54080U 22136AF  23300.20264535  .00002780  00000-0  19263-3 0  9997,2 54080  53.2160 260.1178 0001799  87.1793 272.9405 15.08853445 56881,6917.839,95.437,540.949,538.46,0.0
54080.0,STARLINK-5160,PAYLOAD,2023-10-27 06:27:11,15.08858742,0.0001935,53.2167,259.8209,91.5744,268.547,0.00026165,3.881e-05,0.0,0 STARLINK-5160,1 54080U 22136AF  23300.26888267  .00003881  00000-0  26165-3 0  9999,2 54080  53.2167 259.8209 0001935  91.5744 268.5470 15.08858742 56412,6917.823,95.436,541.027,538.35,0.0
54080.0,STARLINK-5160,PAYLOAD,2023-10-27 20:45:40,15.08844018,0.0002953,53.2153,257.1435,78.0573,282.075,0.0001282,1.753e-05,0.0,0 STARLINK-5160,1 54080U 22136AF  23300.86505266  .00001753  00000-0  12820-3 0  9999,2 54080  53.2153 257.1435 0002953  78.0573 282.0750 15.08844018 56985,6917.868,95.437,541.776,537.69,0.0
54080.0,STARLINK-5160,PAYLOAD,2023-10-28 06:17:59,15.08835295,0.000191,53.2164,255.3599,80.7984,279.3224,-1.0645e-05,-4.58e-06,0.0,0 STARLINK-5160,1 54080U 22136AF  23301.26249489 -.00000458  00000-0 -10645-4 0  9993,2 54080  53.2164 255.3599 0001910  80.7984 279.3224 15.08835295 57046,6917.895,95.438,541.081,538.438,0.0
54080.0,STARLINK-5160,PAYLOAD,2023-10-28 14:14:55,15.08833958,0.0001733,53.216,253.872,86.9556,273.1635,1.5787e-05,-3.7e-07,0.0,0 STARLINK-5160,1 54080U 22136AF  23301.59369589 -.00000037  00000-0  15787-4 0  9997,2 54080  53.2160 253.8720 0001733  86.9556 273.1635 15.08833958 56611,6917.899,95.438,540.963,538.565,0.0
54080.0,STARLINK-5160,PAYLOAD,2023-10-29 04:33:23,15.08857567,0.0001709,53.2164,251.1976,93.1204,266.9984,0.00064819,0.00010048,0.0,0 STARLINK-5160,1 54080U 22136AF  23302.18985087  .00010048  00000-0  64819-3 0  9991,2 54080  53.2164 251.1976 0001709  93.1204 266.9984 15.08857567 57184,6917.827,95.436,540.874,538.509,0.0
54080.0,STARLINK-5160,PAYLOAD,2023-10-29 14:05:42,15.08840156,0.0001898,53.2171,249.4129,86.6696,273.4513,0.00027035,4.017e-05,0.0,0 STARLINK-5160,1 54080U 22136AF  23302.58729752  .00004017  00000-0  27035-3 0  9998,2 54080  53.2171 249.4129 0001898  86.6696 273.4513 15.08840156 56763,6917.88,95.438,541.058,538.432,0.0
54080.0,STARLINK-5160,PAYLOAD,2023-10-29 20:27:15,15.08841298,0.0002308,53.2173,248.2239,82.7822,277.3433,0.00029959,4.483e-05,0.0,0 STARLINK-5160,1 54080U 22136AF  23302.85225950  .00004483  00000-0  29959-3 0  9993,2 54080  53.2173 248.2239 0002308  82.7822 277.3433 15.08841298 57289,6917.876,95.437,541.338,538.145,0.0
54080.0,STARLINK-5160,PAYLOAD,2023-10-30 05:59:34,15.08839733,0.0002018,53.2167,246.4373,92.9184,267.2039,0.00017283,2.463e-05,0.0,0 STARLINK-5160,1 54080U 22136AF  23303.24969944  .00002463  00000-0  17283-3 0  9998,2 54080  53.2167 246.4373 0002018  92.9184 267.2039 15.08839733 56867,6917.881,95.438,541.142,538.35,0.0
54080.0,STARLINK-5160,PAYLOAD,2023-10-31 20:08:49,15.08837841,0.0001528,53.2178,239.3017,104.3382,255.778,0.0001893,2.726e-05,0.0,0 STARLINK-5160,1 54080U 22136AF  23304.83946438  .00002726  00000-0  18930-3 0  9999,2 54080  53.2178 239.3017 0001528 104.3382 255.7780 15.08837841 57581,6917.887,95.438,540.809,538.695,0.0
54080.0,STARLINK-5160,PAYLOAD,2023-11-01 05:41:08,15.08851126,0.000152,53.2171,237.5187,96.3983,263.7183,0.00036749,5.567e-05,0.0,0 STARLINK-5160,1 54080U 22136AF  23305.23690154  .00005567  00000-0  36749-3 0  9999,2 54080  53.2171 237.5187 0001520  96.3983 263.7183 15.08851126 57646,6917.846,95.437,540.763,538.66,0.0
54080.0,STARLINK-5160,PAYLOAD,2023-11-02 02:21:09,15.0884612,0.0001406,53.2169,233.6549,91.4967,268.6187,0.00022629,3.316e-05,0.0,0 STARLINK-5160,1 54080U 22136AF  23306.09802121  .00003316  00000-0  22629-3 0  9995,2 54080  53.2169 233.6549 0001406  91.4967 268.6187 15.08846120 57773,6917.862,95.437,540.699,538.754,0.0
54080.0,STARLINK-5160,PAYLOAD,2023-11-02 11:53:27,15.08843799,0.000137,53.2168,231.8693,87.6784,272.4365,0.00011398,1.527e-05,0.0,0 STARLINK-5160,1 54080U 22136AF  23306.49545987  .00001527  00000-0  11398-3 0  9996,2 54080  53.2168 231.8693 0001370  87.6784 272.4365 15.08843799 57350,6917.869,95.437,540.682,538.786,0.0
54080.0,STARLINK-5160,PAYLOAD,2023-11-02 19:50:23,15.088414,0.0001687,53.2178,230.3849,96.3294,263.789,4.2014e-05,3.81e-06,0.0,0 STARLINK-5160,1 54080U 22136AF  23306.82666564  .00000381  00000-0  42014-4 0  9995,2 54080  53.2178 230.3849 0001687  96.3294 263.7890 15.08841400 57883,6917.876,95.437,540.908,538.574,0.0
54080.0,STARLINK-5160,PAYLOAD,2023-11-03 03:47:18,15.08853347,0.0001535,53.2179,228.8987,102.9848,257.1315,0.00025343,3.749e-05,0.0,0 STARLINK-5160,1 54080U 22136AF  23307.15785551  .00003749  00000-0  25343-3 0  9996,2 54080  53.2179 228.8987 0001535 102.9848 257.1315 15.08853347 57938,6917.84,95.437,540.766,538.643,0.0
54080.0,STARLINK-5160,PAYLOAD,2023-11-03 11:44:14,15.0884687,0.0001592,53.2173,227.4077,81.0201,279.0972,0.00019639,2.839e-05,0.0,0 STARLINK-5160,1 54080U 22136AF  23307.48905786  .00002839  00000-0  19639-3 0  9996,2 54080  53.2173 227.4077 0001592  81.0201 279.0972 15.08846870 57508,6917.859,95.437,540.826,538.623,0.0
54080.0,STARLINK-5160,PAYLOAD,2023-11-04 03:38:06,15.08833145,0.0001788,53.2168,224.4345,85.2144,274.9053,-4.7091e-06,-3.63e-06,0.0,0 STARLINK-5160,1 54080U 22136AF  23308.15146731 -.00000363  00000-0 -47091-5 0  9995,2 54080  53.2168 224.4345 0001788  85.2144 274.9053 15.08833145 58085,6917.901,95.438,541.003,538.529,0.0
